[{"OBJECT_NAME":"STARLINK-4474","OBJECT_ID":"2022-101W","EPOCH":"2026-03-09T10:15:08.317440","MEAN_MOTION":15.08853734,"ECCENTRICITY":0.00019503,"INCLINATION":53.2185,"RA_OF_ASC_NODE":65.3038,"ARG_OF_PERICENTER":40.5655,"MEAN_ANOMALY":319.5483,"EPHEMERIS_TYPE":0,"CLASSIFICATION_TYPE":"U","NORAD_CAT_ID":53547,"ELEMENT_SET_NO":999,"REV_AT_EPOCH":19693,"BSTAR":0.00014085464,"MEAN_MOTION_DOT":1.955e-5,"MEAN_MOTION_DDOT":0},{"OBJECT_NAME":"YUNYAO-1 46","OBJECT_ID":"2025-059D","EPOCH":"2026-03-09T22:34:36.342624","MEAN_MOTION":15.10325082,"ECCENTRICITY":0.00132847,"INCLINATION":97.6091,"RA_OF_ASC_NODE":250.9055,"ARG_OF_PERICENTER":123.8801,"MEAN_ANOMALY":236.3694,"EPHEMERIS_TYPE":0,"CLASSIFICATION_TYPE":"U","NORAD_CAT_ID":63347,"ELEMENT_SET_NO":999,"REV_AT_EPOCH":5331,"BSTAR":0.0002771923,"MEAN_MOTION_DOT":4.488e-5,"MEAN_MOTION_DDOT":0}]
